NORAD_CAT_ID,OBJECT_NAME,OBJECT_TYPE,EPOCH,MEAN_MOTION,ECCENTRICITY,INCLINATION,RA_OF_ASC_NODE,ARG_OF_PERICENTER,MEAN_ANOMALY,BSTAR,MEAN_MOTION_DOT,MEAN_MOTION_DDOT,TLE_LINE0,TLE_LINE1,TLE_LINE2,SEMIMAJOR_AXIS,PERIOD,APOGEE,PERIGEE,DECAYED
54207.0,STARLINK-5262,PAYLOAD,2023-01-01 14:00:01,15.57525067,0.0001317,53.2167,179.8875,53.1456,31.8617,-0.017077,-0.01154415,0.0,0 STARLINK-5262,1 54207U 22141BC  23001.58334491 -.01154415  00000-0 -17077-1 0  9997,2 54207  53.2167 179.8875 0001317  53.1456  31.8617 15.57525067  1308,6772.959,92.454,395.716,393.932,0.0
54207.0,STARLINK-5262,PAYLOAD,2023-01-01 22:00:00,15.56714634,0.0001255,53.2169,178.2791,63.6365,90.9435,-0.017655,-0.01157271,0.0,0 STARLINK-5262,1 54207U 22141BC  23001.91667824 -.01157271  00000-0 -17655-1 0  9998,2 54207  53.2169 178.2791 0001255  63.6365  90.9435 15.56714634 10624,6775.31,92.503,398.025,396.325,0.0
54207.0,STARLINK-5262,PAYLOAD,2023-01-02 00:00:00,15.56490676,0.0001139,53.217,177.8759,70.6357,191.196,-0.017336,-0.01129713,0.0,0 STARLINK-5262,1 54207U 22141BC  23002.00001157 -.01129713  00000-0 -17336-1 0  9996,2 54207  53.2170 177.8759 0001139  70.6357 191.1960 15.56490676  1304,6775.96,92.516,398.597,397.05300000000005,0.0
54207.0,STARLINK-5262,PAYLOAD,2023-01-02 14:00:01,15.55095641,0.0001268,53.2169,175.0622,53.4664,237.3298,-0.018974,-0.01169479,0.0,0 STARLINK-5262,1 54207U 22141BC  23002.58334491 -.01169479  00000-0 -18974-1 0  9991,2 54207  53.2169 175.0622 0001268  53.4664 237.3298 15.55095641  1303,6780.012,92.599,402.736,401.017,0.0
54207.0,STARLINK-5262,PAYLOAD,2023-01-02 22:00:00,15.54252713,0.0001355,53.2168,173.4594,41.8121,315.6389,-0.018822,-0.01128855,0.0,0 STARLINK-5262,1 54207U 22141BC  23002.91667824 -.01128855  00000-0 -18822-1 0  9992,2 54207  53.2168 173.4594 0001355  41.8121 315.6389 15.54252713  1303,6782.4630000000025,92.649,405.247,403.409,0.0
54207.0,STARLINK-5262,PAYLOAD,2023-01-03 04:00:00,15.53671782,0.0001313,53.2164,172.2561,46.4167,270.3611,-0.01999,-0.0116912,0.0,0 STARLINK-5262,1 54207U 22141BC  23003.16667824 -.01169120  00000-0 -19990-1 0  9997,2 54207  53.2164 172.2561 0001313  46.4167 270.3611 15.53671782 10827,6784.153,92.684,406.909,405.128,0.0
54207.0,STARLINK-5262,PAYLOAD,2023-01-03 14:00:01,15.52633702,0.0001514,53.2168,170.2545,48.9022,78.8974,-0.020201,-0.01140626,0.0,0 STARLINK-5262,1 54207U 22141BC  23003.58334491 -.01140626  00000-0 -20201-1 0  9991,2 54207  53.2168 170.2545 0001514  48.9022  78.8974 15.52633702  1306,6787.177,92.746,410.069,408.014,0.0
54207.0,STARLINK-5262,PAYLOAD,2023-01-04 06:00:00,15.50936953,0.0001372,53.2169,167.0588,43.0484,211.2072,-0.018351,-0.00988499,0.0,0 STARLINK-5262,1 54207U 22141BC  23004.25001157 -.00988499  00000-0 -18351-1 0  9996,2 54207  53.2169 167.0588 0001372  43.0484 211.2072 15.50936953 10986,6792.126,92.847,414.923,413.059,0.0
54207.0,STARLINK-5262,PAYLOAD,2023-01-04 14:00:01,15.50129982,0.0001391,53.2166,165.4644,49.6152,266.4512,-0.0063919,-0.00350503,0.0,0 STARLINK-5262,1 54207U 22141BC  23004.58335648 -.00350503  00000-0 -63919-2 0  9997,2 54207  53.2166 165.4644 0001391  49.6152 266.4512 15.50129982 11048,6794.483,92.895,417.293,415.403,0.0
54207.0,STARLINK-5262,PAYLOAD,2023-01-04 22:00:00,15.49848415,0.0002162,53.2135,163.8768,58.427,318.5178,0.001164,0.00066088,0.0,0 STARLINK-5262,1 54207U 22141BC  23004.91667824  .00066088  00000-0  11640-2 0  9992,2 54207  53.2135 163.8768 0002162  58.4270 318.5178 15.49848415  1301,6795.306,92.912,418.64,415.702,0.0
54207.0,STARLINK-5262,PAYLOAD,2023-01-05 06:00:00,15.49867615,0.0002043,53.2139,162.2816,64.16,13.6905,0.0010517999999999,0.00059665,0.0,0 STARLINK-5262,1 54207U 22141BC  23005.25001157  .00059665  00000-0  10518-2 0  9997,2 54207  53.2139 162.2816 0002043  64.1600  13.6905 15.49867615 11148,6795.25,92.911,418.503,415.727,0.0
54207.0,STARLINK-5262,PAYLOAD,2023-01-05 14:00:01,15.49918977,0.0002181,53.2141,160.6893,62.9546,75.8044,-0.00017718,-0.00010508,0.0,0 STARLINK-5262,1 54207U 22141BC  23005.58334491 -.00010508  00000-0 -17718-3 0  9998,2 54207  53.2141 160.6893 0002181  62.9546  75.8044 15.49918977  1305,6795.1,92.908,418.447,415.483,0.0
54207.0,STARLINK-5262,PAYLOAD,2023-01-05 20:00:01,15.4989146,0.0002245,53.2143,159.4956,58.1591,36.3181,0.0011139,0.00063298,0.0,0 STARLINK-5262,1 54207U 22141BC  23005.83334491  .00063298  00000-0  11139-2 0  9998,2 54207  53.2143 159.4956 0002245  58.1591  36.3181 15.49891460  1302,6795.18,92.91,418.571,415.52,0.0
54207.0,STARLINK-5262,PAYLOAD,2023-01-06 06:00:00,15.49929202,0.0002014,53.2141,157.502,59.8231,200.8667,-0.00040575,-0.00023449,0.0,0 STARLINK-5262,1 54207U 22141BC  23006.25001157 -.00023449  00000-0 -40575-3 0  9998,2 54207  53.2141 157.5020 0002014  59.8231 200.8667 15.49929202 11308,6795.07,92.907,418.304,415.566,0.0
54207.0,STARLINK-5262,PAYLOAD,2023-01-06 22:00:00,15.49929838,0.0002055,53.2136,154.3177,50.4006,332.18,-0.0004014,-0.00023204,0.0,0 STARLINK-5262,1 54207U 22141BC  23006.91667824 -.00023204  00000-0 -40140-3 0  9997,2 54207  53.2136 154.3177 0002055  50.4006 332.1800 15.49929838  1304,6795.068,92.907,418.33,415.537,0.0
54207.0,STARLINK-5262,PAYLOAD,2023-01-07 06:00:00,15.49860826,0.0001742,53.2138,152.7227,55.7191,27.8342,0.00081723,0.00046166,0.0,0 STARLINK-5262,1 54207U 22141BC  23007.25001157  .00046166  00000-0  81723-3 0  9998,2 54207  53.2138 152.7227 0001742  55.7191  27.8342 15.49860826  1309,6795.27,92.912,418.319,415.951,0.0
54207.0,STARLINK-5262,PAYLOAD,2023-01-07 22:00:00,15.49915427,0.0001872,53.2138,149.5384,46.9678,158.4162,-0.00018237,-0.000108,0.0,0 STARLINK-5262,1 54207U 22141BC  23007.91667824 -.00010800  00000-0 -18237-3 0  9998,2 54207  53.2138 149.5384 0001872  46.9678 158.4162 15.49915427 11550,6795.11,92.908,418.247,415.703,0.0
54207.0,STARLINK-5262,PAYLOAD,2023-01-08 00:00:00,15.49931869,0.0001814,53.214,149.1395,47.3411,263.2748,-0.00087914,-0.00050114,0.0,0 STARLINK-5262,1 54207U 22141BC  23008.00001157 -.00050114  00000-0 -87914-3 0  9990,2 54207  53.2140 149.1395 0001814  47.3411 263.2748 15.49931869  1302,6795.062,92.907,418.16,415.695,0.0
54207.0,STARLINK-5262,PAYLOAD,2023-01-08 09:29:55,15.49918091,0.0001883,53.215,147.2453,53.8375,306.2809,-2.6098000000000007e-05,-1.935e-05,0.0,0 STARLINK-5262,1 54207U 22141BC  23008.39577629 -.00001935  00000-0 -26098-4 0  9998,2 54207  53.2150 147.2453 0001883  53.8375 306.2809 15.49918091 11404,6795.102,92.908,418.247,415.6880000000001,0.0
54207.0,STARLINK-5262,PAYLOAD,2023-01-08 15:41:20,15.49911765,0.0001624,53.2167,146.0137,49.7619,310.3533,-9.715e-06,-1.004e-05,0.0,0 STARLINK-5262,1 54207U 22141BC  23008.65371126 -.00001004  00000-0 -97150-5 0  9996,2 54207  53.2167 146.0137 0001624  49.7619 310.3533 15.49911765 11441,6795.121,92.909,418.089,415.882,0.0
54207.0,STARLINK-5262,PAYLOAD,2023-01-09 14:54:17,15.49848384,0.0001499,53.2157,141.39,110.8548,249.2622,-9.2818e-05,-5.709e-05,0.0,0 STARLINK-5262,1 54207U 22141BC  23009.62103292 -.00005709  00000-0 -92818-4 0  9992,2 54207  53.2157 141.3900 0001499 110.8548 249.2622 15.49848384 11824,6795.306,92.912,418.19,416.153,0.0
54207.0,STARLINK-5262,PAYLOAD,2023-01-09 18:00:00,15.49849921,0.0001842,53.216,140.7749,104.4703,255.6512,-7.4495e-05,-4.672e-05,0.0,0 STARLINK-5262,1 54207U 22141BC  23009.75000291 -.00004672  00000-0 -74495-4 0  9990,2 54207  53.2160 140.7749 0001842 104.4703 255.6512 15.49849921 11610,6795.302,92.912,418.418,415.915,0.0
54207.0,STARLINK-5262,PAYLOAD,2023-01-10 01:44:17,15.4986489,0.0003485,53.2165,139.2349,15.7437,344.3681,-5.0792e-05,-3.334e-05,0.0,0 STARLINK-5262,1 54207U 22141BC  23010.07242146 -.00003334  00000-0 -50792-4 0  9992,2 54207  53.2165 139.2349 0003485  15.7437 344.3681 15.49864890 11892,6795.258000000002,92.911,419.491,414.755,0.0
54207.0,STARLINK-5262,PAYLOAD,2023-01-10 07:56:52,15.48984794,0.0001673,53.2137,138.0067,111.1094,249.0095,-0.0020772,-0.00113025,0.0,0 STARLINK-5262,1 54207U 22141BC  23010.33116726 -.00113025  00000-0 -20772-2 0  9997,2 54207  53.2137 138.0067 0001673 111.1094 249.0095 15.48984794 11932,6797.831999999999,92.964,420.834,418.559,0.0
54207.0,STARLINK-5262,PAYLOAD,2023-01-10 22:00:00,15.46212003,0.0001726,53.2167,135.2164,33.9619,349.3749,-0.025552,-0.01164997,0.0,0 STARLINK-5262,1 54207U 22141BC  23010.91667824 -.01164997  00000-0 -25552-1 0  9996,2 54207  53.2167 135.2164 0001726  33.9619 349.3749 15.46212003 12021,6805.956,93.131,428.996,426.646,0.0
54207.0,STARLINK-5262,PAYLOAD,2023-01-11 14:00:01,15.44569021,0.0001985,53.2173,132.0507,34.548,99.7858,-0.02648,-0.01142927,0.0,0 STARLINK-5262,1 54207U 22141BC  23011.58334491 -.01142927  00000-0 -26480-1 0  9991,2 54207  53.2173 132.0507 0001985  34.5480  99.7858 15.44569021  1303,6810.781999999998,93.23,433.999,431.295,0.0
54207.0,STARLINK-5262,PAYLOAD,2023-01-11 22:00:00,15.43757538,0.0001921,53.2171,130.4719,34.255,154.1056,-0.027313,-0.01146302,0.0,0 STARLINK-5262,1 54207U 22141BC  23011.91667824 -.01146302  00000-0 -27313-1 0  9994,2 54207  53.2171 130.4719 0001921  34.2550 154.1056 15.43757538 12177,6813.1680000000015,93.279,436.342,433.724,0.0
54207.0,STARLINK-5262,PAYLOAD,2023-01-12 20:00:01,15.41517185,0.0001783,53.2171,126.1391,36.5725,205.3235,-0.029335,-0.01141711,0.0,0 STARLINK-5262,1 54207U 22141BC  23012.83334491 -.01141711  00000-0 -29335-1 0  9992,2 54207  53.2171 126.1391 0001783  36.5725 205.3235 15.41517185 12325,6819.768,93.414,442.849,440.417,0.0
54207.0,STARLINK-5262,PAYLOAD,2023-01-12 22:00:00,15.41317393,0.0001696999999999,53.2172,125.7455,32.4259,312.1506,-0.029693,-0.01147374,0.0,0 STARLINK-5262,1 54207U 22141BC  23012.91667824 -.01147374  00000-0 -29693-1 0  9998,2 54207  53.2172 125.7455 0001697  32.4259 312.1506 15.41317393  1306,6820.357,93.427,443.38,441.065,0.0
